NUSAT-49 (KLARA DAN VO*)
1 60500U 24149AJ  26068.79810190  .00012912  00000+0  43568-3 0  9991
2 60500  97.3807 150.7380 0001132 286.7761  73.3356 15.30828857 86935
STARLINK-32504          
1 62024U 24213S   26068.54142555  .00025277  00000+0  86230-3 0  9993
2 62024  53.1596 168.7092 0003351 170.7831 189.3232 15.30210574 73137
